{
  "type": "FeatureCollection",
  "features": [
    {
      "type": "Feature",
      "properties": {
        "norad_id": 59600,
        "name": "GSAT0227 (GALILEO 30)",
        "group": "galileo",
        "lat": -21.235540886812817,
        "lon": 90.3473347240425,
        "alt_km": 23231.979492424485,
        "timestamp": "2025-12-18T07:01:54.852682+00:00",
        "meta_object_name": "GSAT0227 (GALILEO 30)",
        "meta_object_id": "2024-079C",
        "meta_epoch": "2025-12-17T17:58:49.656576",
        "meta_mean_motion": 1.70474875,
        "meta_eccentricity": 0.00029873,
        "meta_inclination": 54.9997,
        "meta_ra_of_asc_node": 106.1542,
        "meta_arg_of_pericenter": 116.3364,
        "meta_mean_anomaly": 243.6531,
        "meta_ephemeris_type": 0,
        "meta_classification_type": "U",
        "meta_norad_cat_id": 59600,
        "meta_element_set_no": 999,
        "meta_rev_at_epoch": 1027,
        "meta_bstar": 0,
        "meta_mean_motion_dot": -9e-08,
        "meta_mean_motion_ddot": 0,
        "tle_line1": "1 59600U 24079C   25351.74918584 -.00000009  00000+0  00000+0 0  9992",
        "tle_line2": "2 59600  54.9997 106.1542 0002987 116.3364 243.6531  1.70474875 10271"
      },
      "geometry": {
        "type": "Point",
        "coordinates": [
          90.3473347240425,
          -21.235540886812817
        ]
      }
    },
    {
      "type": "Feature",
      "properties": {
        "norad_id": 61182,
        "name": "GSAT0232 (GALILEO 32)",
        "group": "galileo",
        "lat": 9.688953196280481,
        "lon": 39.48604258469242,
        "alt_km": 23217.078176381157,
        "timestamp": "2025-12-18T07:01:54.852693+00:00",
        "meta_object_name": "GSAT0232 (GALILEO 32)",
        "meta_object_id": "2024-167A",
        "meta_epoch": "2025-12-15T09:09:10.050912",
        "meta_mean_motion": 1.70473627,
        "meta_eccentricity": 0.00018812,
        "meta_inclination": 55.2399,
        "meta_ra_of_asc_node": 226.3583,
        "meta_arg_of_pericenter": 210.2547,
        "meta_mean_anomaly": 331.0661,
        "meta_ephemeris_type": 0,
        "meta_classification_type": "U",
        "meta_norad_cat_id": 61182,
        "meta_element_set_no": 999,
        "meta_rev_at_epoch": 774,
        "meta_bstar": 0,
        "meta_mean_motion_dot": 4.1e-07,
        "meta_mean_motion_ddot": 0,
        "tle_line1": "1 61182U 24167A   25349.38136633  .00000041  00000+0  00000+0 0  9997",
        "tle_line2": "2 61182  55.2399 226.3583 0001881 210.2547 331.0661  1.70473627  7746"
      },
      "geometry": {
        "type": "Point",
        "coordinates": [
          39.48604258469242,
          9.688953196280481
        ]
      }
    },
    {
      "type": "Feature",
      "properties": {
        "norad_id": 61183,
        "name": "GSAT0226 (GALILEO 31)",
        "group": "galileo",
        "lat": -53.79809370875906,
        "lon": 154.8370320630024,
        "alt_km": 23230.477414749785,
        "timestamp": "2025-12-18T07:01:54.852705+00:00",
        "meta_object_name": "GSAT0226 (GALILEO 31)",
        "meta_object_id": "2024-167B",
        "meta_epoch": "2025-12-12T20:26:08.685024",
        "meta_mean_motion": 1.70473602,
        "meta_eccentricity": 8.42e-05,
        "meta_inclination": 55.2391,
        "meta_ra_of_asc_node": 226.433,
        "meta_arg_of_pericenter": 113.0334,
        "meta_mean_anomaly": 68.3038,
        "meta_ephemeris_type": 0,
        "meta_classification_type": "U",
        "meta_norad_cat_id": 61183,
        "meta_element_set_no": 999,
        "meta_rev_at_epoch": 767,
        "meta_bstar": 0,
        "meta_mean_motion_dot": 1.9e-07,
        "meta_mean_motion_ddot": 0,
        "tle_line1": "1 61183U 24167B   25346.85148941  .00000019  00000+0  00000+0 0  9997",
        "tle_line2": "2 61183  55.2391 226.4330 0000842 113.0334  68.3038  1.70473602  7673"
      },
      "geometry": {
        "type": "Point",
        "coordinates": [
          154.8370320630024,
          -53.79809370875906
        ]
      }
    },
    {
      "type": "Feature",
      "properties": {
        "norad_id": 67160,
        "name": "GALILEO A",
        "group": "galileo",
        "lat": 54.22556443266198,
        "lon": -160.44356028499837,
        "alt_km": 22956.585230165787,
        "timestamp": "2025-12-18T07:01:54.852717+00:00",
        "meta_object_name": "GALILEO A",
        "meta_object_id": "2025-302A",
        "meta_epoch": "2025-12-17T13:37:30.925056",
        "meta_mean_motion": 1.72900439,
        "meta_eccentricity": 0.00075221,
        "meta_inclination": 54.2352,
        "meta_ra_of_asc_node": 107.2635,
        "meta_arg_of_pericenter": 237.6848,
        "meta_mean_anomaly": 122.2012,
        "meta_ephemeris_type": 0,
        "meta_classification_type": "U",
        "meta_norad_cat_id": 67160,
        "meta_element_set_no": 999,
        "meta_rev_at_epoch": 1,
        "meta_bstar": 0,
        "meta_mean_motion_dot": -8e-08,
        "meta_mean_motion_ddot": 0,
        "tle_line1": "1 67160U 25302A   25351.56771904 -.00000008  00000+0  00000+0 0  9994",
        "tle_line2": "2 67160  54.2352 107.2635 0007522 237.6848 122.2012  1.72900439    17"
      },
      "geometry": {
        "type": "Point",
        "coordinates": [
          -160.44356028499837,
          54.22556443266198
        ]
      }
    },
    {
      "type": "Feature",
      "properties": {
        "norad_id": 67161,
        "name": "GALILEO B",
        "group": "galileo",
        "lat": 54.21272904369376,
        "lon": -160.0306577082743,
        "alt_km": 22943.972892786667,
        "timestamp": "2025-12-18T07:01:54.852728+00:00",
        "meta_object_name": "GALILEO B",
        "meta_object_id": "2025-302B",
        "meta_epoch": "2025-12-17T13:37:26.172192",
        "meta_mean_motion": 1.72965674,
        "meta_eccentricity": 0.00048649,
        "meta_inclination": 54.2314,
        "meta_ra_of_asc_node": 107.2469,
        "meta_arg_of_pericenter": 248.2865,
        "meta_mean_anomaly": 111.6205,
        "meta_ephemeris_type": 0,
        "meta_classification_type": "U",
        "meta_norad_cat_id": 67161,
        "meta_element_set_no": 999,
        "meta_rev_at_epoch": 2,
        "meta_bstar": 0,
        "meta_mean_motion_dot": -8e-08,
        "meta_mean_motion_ddot": 0,
        "tle_line1": "1 67161U 25302B   25351.56766403 -.00000008  00000+0  00000+0 0  9993",
        "tle_line2": "2 67161  54.2314 107.2469 0004864 248.2865 111.6205  1.72965674    23"
      },
      "geometry": {
        "type": "Point",
        "coordinates": [
          -160.0306577082743,
          54.21272904369376
        ]
      }
    }
  ]
}